{
  "type": "FeatureCollection",
  "features": [
    {
      "type": "Feature",
      "properties": {
        "norad_id": 67221,
        "name": "DISKSAT C",
        "group": "last-30-days",
        "lat": -39.90442292751266,
        "lon": 173.30093521238393,
        "alt_km": 551.1119832943859,
        "timestamp": "2025-12-22T22:44:19.654941+00:00",
        "meta_object_name": "DISKSAT C",
        "meta_object_id": "2025-305C",
        "meta_epoch": "2025-12-20T07:33:11.308608",
        "meta_mean_motion": 15.0565367,
        "meta_eccentricity": 0.00043877,
        "meta_inclination": 45.0067,
        "meta_ra_of_asc_node": 310.4143,
        "meta_arg_of_pericenter": 282.7791,
        "meta_mean_anomaly": 77.2594,
        "meta_ephemeris_type": 0,
        "meta_classification_type": "U",
        "meta_norad_cat_id": 67221,
        "meta_element_set_no": 999,
        "meta_rev_at_epoch": 31,
        "meta_bstar": 0.00010190761,
        "meta_mean_motion_dot": 1.256e-05,
        "meta_mean_motion_ddot": 0,
        "tle_line1": "1 67221U 25305C   25354.31471422  .00001256  00000+0  10191-3 0  9994",
        "tle_line2": "2 67221  45.0067 310.4143 0004387 282.7791  77.2594 15.05653670   312"
      },
      "geometry": {
        "type": "Point",
        "coordinates": [
          173.30093521238393,
          -39.90442292751266
        ]
      }
    },
    {
      "type": "Feature",
      "properties": {
        "norad_id": 67222,
        "name": "DISKSAT D",
        "group": "last-30-days",
        "lat": -39.32012226618728,
        "lon": 171.54962356119094,
        "alt_km": 551.5936208273097,
        "timestamp": "2025-12-22T22:44:19.654954+00:00",
        "meta_object_name": "DISKSAT D",
        "meta_object_id": "2025-305D",
        "meta_epoch": "2025-12-20T07:33:21.625632",
        "meta_mean_motion": 15.05567005,
        "meta_eccentricity": 0.00044772,
        "meta_inclination": 45.0056,
        "meta_ra_of_asc_node": 310.415,
        "meta_arg_of_pericenter": 287.6101,
        "meta_mean_anomaly": 72.4284,
        "meta_ephemeris_type": 0,
        "meta_classification_type": "U",
        "meta_norad_cat_id": 67222,
        "meta_element_set_no": 999,
        "meta_rev_at_epoch": 31,
        "meta_bstar": 0.00010184381,
        "meta_mean_motion_dot": 1.252e-05,
        "meta_mean_motion_ddot": 0,
        "tle_line1": "1 67222U 25305D   25354.31483363  .00001252  00000+0  10184-3 0  9990",
        "tle_line2": "2 67222  45.0056 310.4150 0004477 287.6101  72.4284 15.05567005   317"
      },
      "geometry": {
        "type": "Point",
        "coordinates": [
          171.54962356119094,
          -39.32012226618728
        ]
      }
    },
    {
      "type": "Feature",
      "properties": {
        "norad_id": 67223,
        "name": "ELECTRON KICK STAGE R/B",
        "group": "last-30-days",
        "lat": -39.63556066173913,
        "lon": 170.85337237923474,
        "alt_km": 401.81413751297805,
        "timestamp": "2025-12-22T22:44:19.654965+00:00",
        "meta_object_name": "ELECTRON KICK STAGE R/B",
        "meta_object_id": "2025-305E",
        "meta_epoch": "2025-12-20T06:12:15.244992",
        "meta_mean_motion": 15.47983126,
        "meta_eccentricity": 0.01793228,
        "meta_inclination": 44.9975,
        "meta_ra_of_asc_node": 310.0187,
        "meta_arg_of_pericenter": 148.745,
        "meta_mean_anomaly": 212.425,
        "meta_ephemeris_type": 0,
        "meta_classification_type": "U",
        "meta_norad_cat_id": 67223,
        "meta_element_set_no": 999,
        "meta_rev_at_epoch": 32,
        "meta_bstar": 0.0001630388,
        "meta_mean_motion_dot": 0.00016328,
        "meta_mean_motion_ddot": 0,
        "tle_line1": "1 67223U 25305E   25354.25850978  .00016328  00000+0  16304-3 0  9994",
        "tle_line2": "2 67223  44.9975 310.0187 0179322 148.7450 212.4250 15.47983126   320"
      },
      "geometry": {
        "type": "Point",
        "coordinates": [
          170.85337237923474,
          -39.63556066173913
        ]
      }
    },
    {
      "type": "Feature",
      "properties": {
        "norad_id": 67224,
        "name": "ELECTRON R/B",
        "group": "last-30-days",
        "lat": 7.968054708614151,
        "lon": 106.06704420820692,
        "alt_km": 494.100240617634,
        "timestamp": "2025-12-22T22:44:19.654976+00:00",
        "meta_object_name": "ELECTRON R/B",
        "meta_object_id": "2025-305F",
        "meta_epoch": "2025-12-18T18:27:13.126752",
        "meta_mean_motion": 15.64663678,
        "meta_eccentricity": 0.0262888,
        "meta_inclination": 45.0188,
        "meta_ra_of_asc_node": 318.3021,
        "meta_arg_of_pericenter": 280.1207,
        "meta_mean_anomaly": 77.0133,
        "meta_ephemeris_type": 0,
        "meta_classification_type": "U",
        "meta_norad_cat_id": 67224,
        "meta_element_set_no": 999,
        "meta_rev_at_epoch": 9,
        "meta_bstar": 0.00022935,
        "meta_mean_motion_dot": 0.00172783,
        "meta_mean_motion_ddot": 8.6369e-06,
        "tle_line1": "1 67224U 25305F   25352.76890193  .00172783  86369-5  22935-3 0  9995",
        "tle_line2": "2 67224  45.0188 318.3021 0262888 280.1207  77.0133 15.64663678    93"
      },
      "geometry": {
        "type": "Point",
        "coordinates": [
          106.06704420820692,
          7.968054708614151
        ]
      }
    },
    {
      "type": "Feature",
      "properties": {
        "norad_id": 67226,
        "name": "TJS-23",
        "group": "last-30-days",
        "lat": -8.678391976608925,
        "lon": -92.70138691138152,
        "alt_km": 27179.136283427313,
        "timestamp": "2025-12-22T22:44:19.654987+00:00",
        "meta_object_name": "TJS-23",
        "meta_object_id": "2025-306A",
        "meta_epoch": "2025-12-21T08:24:49.367232",
        "meta_mean_motion": 1.72705756,
        "meta_eccentricity": 0.77540409,
        "meta_inclination": 16.401,
        "meta_ra_of_asc_node": 298.8861,
        "meta_arg_of_pericenter": 179.8382,
        "meta_mean_anomaly": 143.9016,
        "meta_ephemeris_type": 0,
        "meta_classification_type": "U",
        "meta_norad_cat_id": 67226,
        "meta_element_set_no": 999,
        "meta_rev_at_epoch": 2,
        "meta_bstar": 0.00071636348,
        "meta_mean_motion_dot": 3.331e-05,
        "meta_mean_motion_ddot": 0,
        "tle_line1": "1 67226U 25306A   25355.35057138  .00003331  00000+0  71636-3 0  9996",
        "tle_line2": "2 67226  16.4010 298.8861 7754040 179.8382 143.9016  1.72705756    20"
      },
      "geometry": {
        "type": "Point",
        "coordinates": [
          -92.70138691138152,
          -8.678391976608925
        ]
      }
    },
    {
      "type": "Feature",
      "properties": {
        "norad_id": 67227,
        "name": "CZ-5 R/B",
        "group": "last-30-days",
        "lat": 2.8747869027670276,
        "lon": -51.949550492722764,
        "alt_km": 39502.880564489875,
        "timestamp": "2025-12-22T22:44:19.655000+00:00",
        "meta_object_name": "CZ-5 R/B",
        "meta_object_id": "2025-306B",
        "meta_epoch": "2025-12-20T19:22:03.368352",
        "meta_mean_motion": 1.92163474,
        "meta_eccentricity": 0.75788222,
        "meta_inclination": 16.4229,
        "meta_ra_of_asc_node": 298.9498,
        "meta_arg_of_pericenter": 179.0262,
        "meta_mean_anomaly": 184.9269,
        "meta_ephemeris_type": 0,
        "meta_classification_type": "U",
        "meta_norad_cat_id": 67227,
        "meta_element_set_no": 999,
        "meta_rev_at_epoch": 2,
        "meta_bstar": 0.00048545663,
        "meta_mean_motion_dot": 1.201e-05,
        "meta_mean_motion_ddot": 0,
        "tle_line1": "1 67227U 25306B   25354.80698343  .00001201  00000+0  48546-3 0  9993",
        "tle_line2": "2 67227  16.4229 298.9498 7578822 179.0262 184.9269  1.92163474    23"
      },
      "geometry": {
        "type": "Point",
        "coordinates": [
          -51.949550492722764,
          2.8747869027670276
        ]
      }
    },
    {
      "type": "Feature",
      "properties": {
        "norad_id": 67228,
        "name": "QPS-SAR-15",
        "group": "last-30-days",
        "lat": -41.01209089676487,
        "lon": 9.50943021525565,
        "alt_km": 573.233593486837,
        "timestamp": "2025-12-22T22:44:19.655013+00:00",
        "meta_object_name": "QPS-SAR-15",
        "meta_object_id": "2025-307A",
        "meta_epoch": "2025-12-21T08:45:22.976928",
        "meta_mean_motion": 14.96940801,
        "meta_eccentricity": 0.0010016,
        "meta_inclination": 42.0068,
        "meta_ra_of_asc_node": 123.0965,
        "meta_arg_of_pericenter": 272.7947,
        "meta_mean_anomaly": 87.1731,
        "meta_ephemeris_type": 0,
        "meta_classification_type": "U",
        "meta_norad_cat_id": 67228,
        "meta_element_set_no": 999,
        "meta_rev_at_epoch": 1,
        "meta_bstar": -0.00011342309,
        "meta_mean_motion_dot": -1.505e-05,
        "meta_mean_motion_ddot": 0,
        "tle_line1": "1 67228U 25307A   25355.36484927 -.00001505  00000+0 -11342-3 0  9991",
        "tle_line2": "2 67228  42.0068 123.0965 0010016 272.7947  87.1731 14.96940801    19"
      },
      "geometry": {
        "type": "Point",
        "coordinates": [
          9.50943021525565,
          -41.01209089676487
        ]
      }
    }
  ]
}